     2.11           N: GPS NAV DATA                         RINEX VERSION / TYPE
teqc  2019Feb25                         20221121 12:27:36UTCPGM / RUN BY / DATE
OSX ker:10.11.6|Core i5|gcc 4.3 -m64|OSX ker:10.10+|=+      COMMENT
    8.3819D-09  1.4901D-08 -5.9605D-08 -5.9605D-08          ION ALPHA
    8.3968D+04  1.6384D+04 -1.3107D+05 -6.5536D+04          ION BETA
   -2.793967723846D-09-7.105427357601D-15   589824     1550 DELTA-UTC: A0,A1,T,W
                                                            END OF HEADER
17 09  9 25  0  0  0.0 8.765282109380D-05 3.069544618484D-12 0.000000000000D+00
    4.700000000000D+01-1.906250000000D+01 4.828772566331D-09-7.213710915672D-01
   -8.568167686462D-07 4.670156165957D-03 7.227063179016D-06 5.153731565475D+03
    4.320000000000D+05 7.823109626770D-08 2.726811228713D+00 6.332993507385D-08
    9.600943837391D-01 2.391875000000D+02-2.647106101863D+00-8.042477858627D-09
    8.714648714384D-11 1.000000000000D+00 1.550000000000D+03 0.000000000000D+00
    2.000000000000D+00 0.000000000000D+00-1.024454832077D-08 4.700000000000D+01
    4.248180000000D+05 4.000000000000D+00
11 09  9 25  0  0  0.0-2.118060365319D-05-1.705302565824D-12 0.000000000000D+00
    7.900000000000D+01 8.812500000000D+00 6.231330988519D-09 2.650154744143D+00
    4.246830940247D-07 9.901308105327D-03 8.402392268181D-06 5.153701686859D+03
    4.320000000000D+05-8.754432201386D-08-2.748894154132D+00-1.415610313416D-07
    8.894112628634D-01 1.793437500000D+02 7.299102526518D-01-8.559999415478D-09
   -1.767930784271D-10 1.000000000000D+00 1.550000000000D+03 0.000000000000D+00
    2.000000000000D+00 0.000000000000D+00-1.164153218269D-08 7.900000000000D+01
    4.248180000000D+05 4.000000000000D+00
32 09  9 25  0  0  0.0 1.903050579131D-04-7.162270776462D-12 0.000000000000D+00
    8.400000000000D+01 7.896875000000D+01 4.382325398586D-09-2.754155299086D+00
    4.129484295845D-06 1.327285578009D-02 5.975365638733D-06 5.153716606140D+03
    4.320000000000D+05 2.421438694000D-08-1.395665441308D+00 1.937150955200D-07
    9.620522918538D-01 2.620000000000D+02-1.113439272289D+00-7.811753962337D-09
   -7.428880871279D-11 1.000000000000D+00 1.550000000000D+03 0.000000000000D+00
    2.000000000000D+00 0.000000000000D+00-3.259629011154D-09 8.400000000000D+01
    4.248180000000D+05 4.000000000000D+00
 4 09  9 25  0  0  0.0-2.808850258589D-04-1.739408617141D-11 0.000000000000D+00
    4.200000000000D+01 3.415625000000D+01 5.158071997260D-09 1.035789937403D+00
    2.015382051468D-06 8.787555852905D-03 8.752569556236D-06 5.153804862976D+03
    4.320000000000D+05 4.097819328308D-08-2.524533750701D+00 9.685754776001D-08
    9.402207001490D-01 1.998750000000D+02 5.184307522075D-01-8.275701859057D-09
   -3.453715289676D-10 1.000000000000D+00 1.550000000000D+03 0.000000000000D+00
    2.000000000000D+00 0.000000000000D+00-6.053596735001D-09 4.200000000000D+01
    4.248180000000D+05 4.000000000000D+00
12 09  9 25  0  0  0.0-2.139844000340D-04 5.570655048359D-12 0.000000000000D+00
    6.900000000000D+01-4.562500000000D+01 4.214104105780D-09 2.827976178822D+00
   -2.427026629448D-06 3.075776854530D-03 7.877126336098D-06 5.153568923950D+03
    4.320000000000D+05 9.313225746155D-09 1.666828445958D+00 8.009374141693D-08
    9.678384971239D-01 2.275312500000D+02-5.892514985644D-01-7.801396388045D-09
    3.793015137162D-10 1.000000000000D+00 1.550000000000D+03 0.000000000000D+00
    2.000000000000D+00 0.000000000000D+00-1.164153218269D-08 6.900000000000D+01
    4.248180000000D+05 4.000000000000D+00
 9 09  9 25  0  0  0.0 7.937848567963D-05 2.160049916711D-12 0.000000000000D+00
    4.200000000000D+01-7.518750000000D+01 3.808372919733D-09 1.888812511594D+00
   -4.233792424202D-06 2.067731705029D-02 5.720183253288D-06 5.153633411407D+03
    4.320000000000D+05 2.868473529816D-07 5.808190939266D-01-3.613531589508D-07
    9.779050880493D-01 2.762812500000D+02 1.514405384514D+00-7.722107371054D-09
   -1.785788670980D-12 1.000000000000D+00 1.550000000000D+03 0.000000000000D+00
    2.000000000000D+00 0.000000000000D+00-5.587935447693D-09 4.200000000000D+01
    4.248180000000D+05 4.000000000000D+00
14 09  9 25  0  0  0.0-4.640035331249D-05 5.115907697473D-12 0.000000000000D+00
    7.000000000000D+01 1.093750000000D+01 3.975165581602D-09-1.223774568266D+00
    4.861503839493D-07 4.949483787641D-03 4.105269908905D-06 5.153648809433D+03
    4.320000000000D+05 1.359730958939D-07-3.926569160109D-01 1.266598701477D-07
    9.879473009078D-01 3.168437500000D+02-2.151770125771D+00-7.945688112660D-09
   -2.039370662260D-10 1.000000000000D+00 1.550000000000D+03 0.000000000000D+00
    2.000000000000D+00 0.000000000000D+00-8.847564458847D-09 7.000000000000D+01
    4.248180000000D+05 4.000000000000D+00
23 09  9 25  0  0  0.0 3.882390446961D-04-3.410605131648D-13 0.000000000000D+00
    7.800000000000D+01 2.093750000000D+00 4.324108687912D-09-1.876888989011D+00
    6.705522537231D-08 6.393744959496D-03 3.868713974953D-06 5.153771680832D+03
    4.320000000000D+05-2.980232238770D-08-4.272696031168D-01-7.264316082001D-08
    9.698583685968D-01 3.099375000000D+02 2.973337649848D+00-8.114623720935D-09
   -1.000041655749D-10 1.000000000000D+00 1.550000000000D+03 0.000000000000D+00
    2.000000000000D+00 0.000000000000D+00-2.002343535423D-08 7.800000000000D+01
    4.267320000000D+05 4.000000000000D+00
30 09  9 25  0  0  0.0 1.796535216272D-04 3.069544618484D-12 0.000000000000D+00
    1.120000000000D+02-3.900000000000D+01 4.659479800322D-09 3.148234055899D-01
   -2.220273017883D-06 1.191215042491D-02 7.757917046547D-06 5.153667274475D+03
    4.320000000000D+05-1.695007085800D-07 1.617113812676D+00-1.676380634308D-08
    9.529752479757D-01 2.282187500000D+02 1.456855879872D+00-8.229271353612D-09
    3.103700710164D-10 1.000000000000D+00 1.550000000000D+03 0.000000000000D+00
    2.800000000000D+00 0.000000000000D+00-7.916241884232D-09 1.120000000000D+02
    4.273320000000D+05 4.000000000000D+00
31 09  9 25  0  0  0.0-6.391713395715D-05 5.684341886081D-13 0.000000000000D+00
    1.200000000000D+01-6.396875000000D+01 3.915877397726D-09 2.607496938017D+00
   -3.149732947350D-06 7.051187218167D-03 6.340444087982D-06 5.153796672821D+03
    4.320000000000D+05 2.793967723846D-08 6.124199779560D-01 1.676380634308D-08
    9.743507910614D-01 2.635000000000D+02-1.141248023961D+00-7.702106537939D-09
   -7.143154683922D-13 1.000000000000D+00 1.550000000000D+03 0.000000000000D+00
    2.000000000000D+00 0.000000000000D+00-1.303851604462D-08 1.200000000000D+01
    4.283220000000D+05 4.000000000000D+00
13 09  9 25  0  0  0.0 3.050081431866D-04 4.547473508865D-13 0.000000000000D+00
    7.300000000000D+01-3.343750000000D+00 3.843731535418D-09-1.191434581450D+00
   -1.881271600723D-07 3.999161301181D-03 4.108995199204D-06 5.153648759842D+03
    4.320000000000D+05-2.048909664154D-08-3.724086888196D-01 3.539025783539D-08
    9.945339359533D-01 3.173125000000D+02 1.660884899460D+00-7.925687279545D-09
   -1.735786588193D-10 1.000000000000D+00 1.550000000000D+03 0.000000000000D+00
    2.000000000000D+00 0.000000000000D+00-1.117587089539D-08 7.300000000000D+01
    4.303920000000D+05 4.000000000000D+00
